SMDC ONE 2.4            
1 39469U 13072H   26068.55980652  .00015821  00000+0  65974-3 0  9996
2 39469 120.4883 328.0945 0137633 267.6479  90.8828 15.15767863102719
STARLINK-32754          
1 62527U 25004S   26068.46297704  .00030763  00000+0  11224-2 0  9994
2 62527  42.9981 221.1752 0001779 292.6160  67.4503 15.27589937 65470
